GPS BIIA-23 (PRN 18)    
1 22877U 93068A   18359.25267307 -.00000040  00000-0  00000+0 0  9994
2 22877  54.5600  75.6702 0147425  78.2031  43.6707  2.00570829184383
GPS BIIR-2  (PRN 13)    
1 24876U 97035A   18358.98208794  .00000076  00000-0  00000+0 0  9995
2 24876  55.4696 205.2876 0034845  79.2472 281.2123  2.00564242156971
GPS BIIR-3  (PRN 11)    
1 25933U 99055A   18359.62907925 -.00000063  00000-0  00000+0 0  9995
2 25933  52.0163  53.3612 0164505 106.3335 288.5016  2.00562588140802
GPS BIIR-4  (PRN 20)    
1 26360U 00025A   18359.52096926  .00000030  00000-0  00000+0 0  9991
2 26360  53.2674 131.6840 0042990 128.7100 234.1886  2.00563070136490
GPS BIIR-5  (PRN 28)    
1 26407U 00040A   18359.62961231 -.00000046  00000-0  00000+0 0  9999
2 26407  56.3722 323.3993 0197722 274.7614 142.5492  2.00561157135178
GPS BIIR-6  (PRN 14)    
1 26605U 00071A   18359.55758716  .00000071  00000-0  00000+0 0  9994
2 26605  55.0436 202.7814 0102156 248.8575  26.4391  2.00565254132776
GPS BIIR-8  (PRN 16)    
1 27663U 03005A   18359.38362448 -.00000045  00000-0  00000+0 0  9995
2 27663  56.4344 323.1759 0102230  28.8111 329.7578  2.00555073116535
GPS BIIR-9  (PRN 21)    
1 27704U 03010A   18359.52245920 -.00000042  00000-0  00000+0 0  9995
2 27704  54.2333  75.1844 0248731 274.0482 150.9617  2.00576063115334
GPS BIIR-10 (PRN 22)    
1 28129U 03058A   18359.17714894  .00000033  00000-0  00000+0 0  9990
2 28129  53.0797 134.5165 0072523 276.9653  82.1753  2.00568743110022
GPS BIIR-11 (PRN 19)    
1 28190U 04009A   18359.37569691 -.00000062  00000-0  00000+0 0  9993
2 28190  56.2319  23.9746 0091469  75.6265  67.9429  2.00570887108204
GPS BIIR-12 (PRN 23)    
1 28361U 04023A   18359.53035507  .00000072  00000-0  00000+0 0  9991
2 28361  54.0517 197.3282 0128144 228.1630 299.9922  2.00563308106295
GPS BIIR-13 (PRN 02)    
1 28474U 04045A   18359.44831064 -.00000041  00000-0  00000+0 0  9999
2 28474  54.5961  74.8745 0188670 257.1028 215.6302  2.00569739103652
GPS BIIRM-1 (PRN 17)    
1 28874U 05038A   18359.38274597 -.00000061  00000-0  00000+0 0  9993
2 28874  56.3640  21.3069 0132026 260.2628 273.5812  2.00564976 97054
GPS BIIRM-2 (PRN 31)    
1 29486U 06042A   18359.08362976  .00000016  00000-0  00000+0 0  9994
2 29486  55.0794 260.0196 0091457 355.7206 238.1484  2.00548177 89763
GPS BIIRM-3 (PRN 12)    
1 29601U 06052A   18359.19785536 -.00000044  00000-0  00000+0 0  9999
2 29601  56.4125 322.0998 0070127  57.4776 303.1929  2.00557792 88683
GPS BIIRM-4 (PRN 15)    
1 32260U 07047A   18359.01523253  .00000074  00000-0  00000+0 0  9998
2 32260  53.1756 193.1977 0109976  42.0575 318.8260  2.00569931 82052
GPS BIIRM-5 (PRN 29)    
1 32384U 07062A   18359.51350178 -.00000062  00000-0  00000+0 0  9999
2 32384  56.4434  21.9266 0003803  90.1814  46.7672  2.00574309 80809
GPS BIIRM-6 (PRN 07)    
1 32711U 08012A   18358.42424966  .00000022  00000-0  00000+0 0  9990
2 32711  54.8165 259.2774 0122585 218.7845 140.4046  2.00569129 78962
GPS BIIRM-8 (PRN 05)    
1 35752U 09043A   18359.45376662  .00000039  00000-0  00000+0 0  9994
2 35752  54.3731 136.9501 0054312  39.7402   9.4613  2.00571950 68570
GPS BIIF-1  (PRN 25)    
1 36585U 10022A   18359.08791786 -.00000043  00000-0  00000+0 0  9991
2 36585  55.6968 318.5287 0077226  47.2703 207.1755  2.00551324 62804
GPS BIIF-2  (PRN 01)    
1 37753U 11036A   18359.54967066 -.00000036  00000-0  00000+0 0  9994
2 37753  55.7935  78.6259 0080770  38.4268 271.2638  2.00565037 54502
GPS BIIF-3  (PRN 24)    
1 38833U 12053A   18359.10306392  .00000020  00000-0  00000+0 0  9997
2 38833  53.8487 255.6207 0078161  31.2786 329.2625  2.00555750 45567
GPS BIIF-4  (PRN 27)    
1 39166U 13023A   18358.96826251 -.00000060  00000-0  00000+0 0  9994
2 39166  56.0536  18.1569 0062511  22.3397 337.9799  2.00560494 41094
GPS BIIF-5  (PRN 30)    
1 39533U 14008A   18358.96562111  .00000014  00000-0  00000+0 0  9996
2 39533  53.9865 261.0014 0036118 191.5175 168.4716  2.00566209 35464
GPS BIIF-6  (PRN 06)    
1 39741U 14026A   18359.24719511 -.00000035  00000-0  00000+0 0  9991
2 39741  55.7749  78.1624 0014798 287.1229  72.7528  2.00553109 33744
GPS BIIF-7  (PRN 09)    
1 40105U 14045A   18358.83550308  .00000078  00000-0  00000+0 0  9995
2 40105  54.5781 197.5647 0012363  97.6357 262.5589  2.00552517 32181
GPS BIIF-8  (PRN 03)    
1 40294U 14068A   18359.20751528  .00000042  00000-0  00000+0 0  9999
2 40294  55.1248 138.3769 0017393  34.2153 325.8613  2.00570243 30413
GPS BIIF-9  (PRN 26)    
1 40534U 15013A   18358.84935336 -.00000044  00000-0  00000+0 0  9990
2 40534  54.6307 317.0625 0034145   0.1349 359.8619  2.00552050 27471
GPS BIIF-10  (PRN 08)   
1 40730U 15033A   18359.00355121 -.00000061  00000-0  00000+0 0  9996
2 40730  55.5811  17.5744 0041099 334.0815  25.7594  2.00563969 25230
GPS BIIF-11  (PRN 10)   
1 41019U 15062A   18359.05622341  .00000041  00000-0  00000+0 0  9992
2 41019  55.1278 138.1926 0042278 202.4462 157.3341  2.00564443 23050
GPS BIIF-12  (PRN 32)   
1 41328U 16007A   18359.14832195  .00000076  00000-0  00000+0 0  9993
2 41328  54.8248 197.8947 0025146 213.7742 146.1178  2.00555766 21119
